{
    "links": {
        "self": "http://www.neowsapp.com/rest/v1/neo/3726654?api_key=iIulBulltgU6a56xZRHN4H3l9WmuAYTsLGpBGhQ2"
    },
    "id": "3726654",
    "neo_reference_id": "3726654",
    "name": "(2015 QU8)",
    "designation": "2015 QU8",
    "nasa_jpl_url": "http://ssd.jpl.nasa.gov/sbdb.cgi?sstr=3726654",
    "absolute_magnitude_h": 24.2,
    "estimated_diameter": {
        "kilometers": {
            "estimated_diameter_min": 0.0384197891,
            "estimated_diameter_max": 0.0859092601
        },
        "meters": {
            "estimated_diameter_min": 38.4197891064,
            "estimated_diameter_max": 85.9092601232
        },
        "miles": {
            "estimated_diameter_min": 0.0238729428,
            "estimated_diameter_max": 0.0533815229
        },
        "feet": {
            "estimated_diameter_min": 126.0491808919,
            "estimated_diameter_max": 281.8545369825
        }
    },
    "is_potentially_hazardous_asteroid": false,
    "close_approach_data": [
        {
            "close_approach_date": "2015-08-22",
            "close_approach_date_full": "2015-Aug-22 16:33",
            "epoch_date_close_approach": 1440261180000,
            "relative_velocity": {
                "kilometers_per_second": "4.763047214",
                "kilometers_per_hour": "17146.9699702579",
                "miles_per_hour": "10654.4603129083"
            },
            "miss_distance": {
                "astronomical": "0.1639838858",
                "lunar": "63.7897315762",
                "kilometers": "24531640.030003246",
                "miles": "15243254.2755509548"
            },
            "orbiting_body": "Earth"
        },
        {
            "close_approach_date": "2018-08-17",
            "close_approach_date_full": "2018-Aug-17 16:29",
            "epoch_date_close_approach": 1534523340000,
            "relative_velocity": {
                "kilometers_per_second": "7.7502334352",
                "kilometers_per_hour": "27900.8403666156",
                "miles_per_hour": "17336.497171134"
            },
            "miss_distance": {
                "astronomical": "0.4546429683",
                "lunar": "176.8561146687",
                "kilometers": "68013619.668157521",
                "miles": "42261703.5605589498"
            },
            "orbiting_body": "Earth"
        }
    ],
    "orbital_data": {
        "orbit_id": "7",
        "orbit_determination_date": "2017-04-06 08:32:18",
        "first_observation_date": "2015-08-21",
        "last_observation_date": "2015-09-14",
        "data_arc_in_days": 24,
        "observations_used": 23,
        "orbit_uncertainty": "8",
        "minimum_orbit_intersection": ".161434",
        "jupiter_tisserand_invariant": "3.600",
        "epoch_osculation": "2457257.5",
        "eccentricity": ".4453870799444034",
        "semi_major_axis": "2.11171867807928",
        "inclination": "5.458237664267171",
        "ascending_node_longitude": "140.7662476021629",
        "orbital_period": "1120.86296268059",
        "perihelion_distance": "1.171186462385494",
        "perihelion_argument": "192.6452929717496",
        "aphelion_distance": "3.052250893773066",
        "perihelion_time": "2457260.087429189628",
        "mean_anomaly": "359.1689666450942",
        "mean_motion": ".3211811006218325",
        "equinox": "J2000",
        "orbit_class": {
            "orbit_class_type": "AMO",
            "orbit_class_description": "Near-Earth asteroid orbits similar to that of 1221 Amor",
            "orbit_class_range": "1.017 AU < q (perihelion) < 1.3 AU"
        }
    },
    "is_sentry_object": false
}